NORAD_CAT_ID,OBJECT_NAME,OBJECT_TYPE,EPOCH,MEAN_MOTION,ECCENTRICITY,INCLINATION,RA_OF_ASC_NODE,ARG_OF_PERICENTER,MEAN_ANOMALY,BSTAR,MEAN_MOTION_DOT,MEAN_MOTION_DDOT,TLE_LINE0,TLE_LINE1,TLE_LINE2,SEMIMAJOR_AXIS,PERIOD,APOGEE,PERIGEE,DECAYED
52659.0,STARLINK-3960,PAYLOAD,2024-06-19 22:25:03,15.08837979,0.0001466,53.2174,92.1741,94.582,265.5339,-6.1107e-05,-1.26e-05,0.0,0 STARLINK-3960,1 52659U 22053D   24171.93406463 -.00001260  00000-0 -61107-4 0  9999,2 52659  53.2174  92.1741 0001466  94.5820 265.5339 15.08837979116457,6917.887,95.438,540.766,538.737,0.0
52659.0,STARLINK-3960,PAYLOAD,2024-06-20 22:15:50,15.08836541,0.0001178,53.2168,87.7143,89.7677,270.345,-2.0556e-05,-6.15e-06,0.0,0 STARLINK-3960,1 52659U 22053D   24172.92766680 -.00000615  00000-0 -20556-4 0  9995,2 52659  53.2168  87.7143 0001178  89.7677 270.3450 15.08836541116601,6917.891,95.438,540.571,538.941,0.0
52659.0,STARLINK-3960,PAYLOAD,2024-06-20 23:51:13,15.08836463,0.0001265,53.2174,87.4174,87.2988,272.8149,-9.8984e-06,-4.45e-06,0.0,0 STARLINK-3960,1 52659U 22053D   24172.99390672 -.00000445  00000-0 -98984-5 0  9998,2 52659  53.2174  87.4174 0001265  87.2988 272.8149 15.08836463116621,6917.891,95.438,540.631,538.881,0.0
52659.0,STARLINK-3960,PAYLOAD,2024-06-21 04:37:22,15.08839419,0.0001122,53.2166,86.5271,84.4926,275.6194,1.8266e-06,-2.59e-06,0.0,0 STARLINK-3960,1 52659U 22053D   24173.19262495 -.00000259  00000-0  18266-5 0  9999,2 52659  53.2166  86.5271 0001122  84.4926 275.6194 15.08839419116640,6917.882,95.438,540.523,538.971,0.0
52659.0,STARLINK-3960,PAYLOAD,2024-06-21 22:06:37,15.08832047,0.0001148,53.2164,83.256,87.1484,272.9639,5.8523e-05,6.44e-06,0.0,0 STARLINK-3960,1 52659U 22053D   24173.92127084  .00000644  00000-0  58523-4 0  9990,2 52659  53.2164  83.2560 0001148  87.1484 272.9639 15.08832047116756,6917.905,95.438,540.564,538.976,0.0
52659.0,STARLINK-3960,PAYLOAD,2024-06-22 01:17:23,15.0884109,0.0001161,53.2169,82.6621,94.9565,265.156,3.1273e-05,2.1e-06,0.0,0 STARLINK-3960,1 52659U 22053D   24174.05374613  .00000210  00000-0  31273-4 0  9999,2 52659  53.2169  82.6621 0001161  94.9565 265.1560 15.08841090116781,6917.877,95.437,540.545,538.939,0.0
52659.0,STARLINK-3960,PAYLOAD,2024-06-22 21:57:25,15.08833857,0.0001257,53.2167,78.7962,86.621,273.4926,7.7628e-05,9.48e-06,0.0,0 STARLINK-3960,1 52659U 22053D   24174.91487282  .00000948  00000-0  77628-4 0  9993,2 52659  53.2167  78.7962 0001257  86.6210 273.4926 15.08833857116908,6917.899,95.438,540.634,538.895,0.0
52659.0,STARLINK-3960,PAYLOAD,2024-06-23 02:43:34,15.08837826,0.0001342,53.2176,77.9054,94.2684,265.8461,0.00011036,1.469e-05,0.0,0 STARLINK-3960,1 52659U 22053D   24175.11358988  .00001469  00000-0  11036-3 0  9995,2 52659  53.2176  77.9054 0001342  94.2684 265.8461 15.08837826116949,6917.887,95.438,540.68,538.824,0.0
52659.0,STARLINK-3960,PAYLOAD,2024-06-23 21:48:11,15.08845226,0.0001697,53.2192,74.3333,65.9091,294.2079,8.1964e-05,1.017e-05,0.0,0 STARLINK-3960,1 52659U 22053D   24175.90846718  .00001017  00000-0  81964-4 0  9992,2 52659  53.2192  74.3333 0001697  65.9091 294.2079 15.08845226117055,6917.864,95.437,540.903,538.555,0.0
52659.0,STARLINK-3960,PAYLOAD,2024-06-24 02:34:21,15.08806951,0.000179,53.2192,73.4355,78.8378,281.2815,0.00074153,0.00011523,0.0,0 STARLINK-3960,1 52659U 22053D   24176.10718960  .00011523  00000-0  74153-3 0  9996,2 52659  53.2192  73.4355 0001790  78.8378 281.2815 15.08806951117094,6917.981,95.44,541.085,538.608,0.0
52659.0,STARLINK-3960,PAYLOAD,2024-06-24 21:38:58,15.08839512,0.0001538,53.2177,69.8667,79.3997,280.7168,1.6009e-05,-3.3e-07,0.0,0 STARLINK-3960,1 52659U 22053D   24176.90207037 -.00000033  00000-0  16009-4 0  9994,2 52659  53.2177  69.8667 0001538  79.3997 280.7168 15.08839512117202,6917.882,95.438,540.811,538.683,0.0
52659.0,STARLINK-3960,PAYLOAD,2024-06-24 23:14:21,15.08840065,0.0001501,53.2179,69.5697,80.5155,279.6007,1.6241e-05,-2.9e-07,0.0,0 STARLINK-3960,1 52659U 22053D   24176.96830997 -.00000029  00000-0  16241-4 0  9990,2 52659  53.2179  69.5697 0001501  80.5155 279.6007 15.08840065117220,6917.88,95.438,540.784,538.707,0.0
52659.0,STARLINK-3960,PAYLOAD,2024-06-25 19:54:21,15.08852015,0.0001658,53.2181,65.7089,131.9899,228.1235,-4.9528e-05,-1.076e-05,0.0,0 STARLINK-3960,1 52659U 22053D   24177.82942109 -.00001076  00000-0 -49528-4 0  9993,2 52659  53.2181  65.7089 0001658 131.9899 228.1235 15.08852015117359,6917.844,95.437,540.856,538.562,0.0
52659.0,STARLINK-3960,PAYLOAD,2024-06-25 21:29:45,15.08853355,0.0001484,53.2181,65.4078,120.3592,239.7547,-3.5871e-05,-8.59e-06,0.0,0 STARLINK-3960,1 52659U 22053D   24177.89565977 -.00000859  00000-0 -35871-4 0  9998,2 52659  53.2181  65.4078 0001484 120.3592 239.7547 15.08853355117355,6917.84,95.437,540.731,538.678,0.0
52659.0,STARLINK-3960,PAYLOAD,2024-06-26 03:51:16,15.08864048,0.0001264,53.2172,64.2249,105.3264,254.7868,8.6086e-05,1.083e-05,0.0,0 STARLINK-3960,1 52659U 22053D   24178.16060899  .00001083  00000-0  86086-4 0  9994,2 52659  53.2172  64.2249 0001264 105.3264 254.7868 15.08864048117407,6917.807,95.436,540.546,538.797,0.0
52659.0,STARLINK-3960,PAYLOAD,2024-06-27 19:35:56,15.08844204,0.0001183,53.2171,56.7943,83.1942,276.9185,-2.5621e-05,-6.96e-06,0.0,0 STARLINK-3960,1 52659U 22053D   24179.81663153 -.00000696  00000-0 -25621-4 0  9998,2 52659  53.2171  56.7943 0001183  83.1942 276.9185 15.08844204117656,6917.868,95.437,540.551,538.914,0.0
52659.0,STARLINK-3960,PAYLOAD,2024-06-27 22:46:43,15.08844241,0.0001161,53.2159,56.198,88.1922,271.9203,1.618e-05,-3e-07,0.0,0 STARLINK-3960,1 52659U 22053D   24179.94910880 -.00000030  00000-0  16180-4 0  9995,2 52659  53.2159  56.1980 0001161  88.1922 271.9203 15.08844241117664,6917.867,95.437,540.536,538.929,0.0
52659.0,STARLINK-3960,PAYLOAD,2024-06-28 08:19:01,15.0884702,0.0001151,53.2162,54.413,86.2581,273.8543,8.0177e-05,9.89e-06,0.0,0 STARLINK-3960,1 52659U 22053D   24180.34654727  .00000989  00000-0  80177-4 0  9995,2 52659  53.2162  54.4130 0001151  86.2581 273.8543 15.08847020117728,6917.859,95.437,540.52,538.928,0.0
52659.0,STARLINK-3960,PAYLOAD,2024-06-28 21:02:06,15.08850172,0.0001117,53.2152,52.0317,76.2975,283.8142,0.00030484,4.568e-05,0.0,0 STARLINK-3960,1 52659U 22053D   24180.87646522  .00004568  00000-0  30484-3 0  9999,2 52659  53.2152  52.0317 0001117  76.2975 283.8142 15.08850172117814,6917.849,95.437,540.487,538.942,0.0
52659.0,STARLINK-3960,PAYLOAD,2024-06-29 19:17:31,15.08836485,0.0001072,53.2156,47.8685,86.9677,273.1438,-2.2977e-05,-6.53e-06,0.0,0 STARLINK-3960,1 52659U 22053D   24181.80383419 -.00000653  00000-0 -22977-4 0  9998,2 52659  53.2156  47.8685 0001072  86.9677 273.1438 15.08836485117951,6917.891,95.438,540.498,539.015,0.0
52659.0,STARLINK-3960,PAYLOAD,2024-06-29 22:28:17,15.08830365,8.6e-05,53.2147,47.2722,105.379,254.7297,-0.00017429,-3.06e-05,0.0,0 STARLINK-3960,1 52659U 22053D   24181.93631375 -.00003060  00000-0 -17429-3 0  9999,2 52659  53.2147  47.2722 0000860 105.3790 254.7297 15.08830365117963,6917.91,95.438,540.37,539.18,0.0
52659.0,STARLINK-3960,PAYLOAD,2024-06-30 01:39:04,15.08828193,9.2e-05,53.2152,46.6801,86.9255,273.1842,-0.00013121,-2.375e-05,0.0,0 STARLINK-3960,1 52659U 22053D   24182.06879924 -.00002375  00000-0 -13121-3 0  9991,2 52659  53.2152  46.6801 0000920  86.9255 273.1842 15.08828193117997,6917.916,95.438,540.418,539.145,0.0
52659.0,STARLINK-3960,PAYLOAD,2024-06-30 08:00:36,15.08830164,9.11e-05,53.2154,45.4912,78.9206,281.1889,-8.4618e-05,-1.634e-05,0.0,0 STARLINK-3960,1 52659U 22053D   24182.33376011 -.00001634  00000-0 -84618-4 0  9997,2 52659  53.2154  45.4912 0000911  78.9206 281.1889 15.08830164118022,6917.91,95.438,540.406,539.145,0.0
52659.0,STARLINK-3960,PAYLOAD,2024-06-30 20:43:41,15.08846575,8.97e-05,53.2153,43.112,80.9577,279.1517,-7.5217e-05,-1.485e-05,0.0,0 STARLINK-3960,1 52659U 22053D   24182.86367432 -.00001485  00000-0 -75217-4 0  9991,2 52659  53.2153  43.1120 0000897  80.9577 279.1517 15.08846575118112,6917.86,95.437,540.346,539.105,0.0
52659.0,STARLINK-3960,PAYLOAD,2024-06-30 22:19:05,15.08832076,0.0001147,53.2159,42.8146,86.786,273.3264,0.00054329,8.367e-05,0.0,0 STARLINK-3960,1 52659U 22053D   24182.92992277  .00008367  00000-0  54329-3 0  9993,2 52659  53.2159  42.8146 0001147  86.7860 273.3264 15.08832076118116,6917.905,95.438,540.563,538.976,0.0
52659.0,STARLINK-3960,PAYLOAD,2024-06-30 23:54:28,15.08834066,0.0001187,53.2163,42.5177,87.4812,272.6316,0.00057593,8.888e-05,0.0,0 STARLINK-3960,1 52659U 22053D   24182.99616265  .00008888  00000-0  57593-3 0  9994,2 52659  53.2163  42.5177 0001187  87.4812 272.6316 15.08834066118134,6917.899,95.438,540.585,538.942,0.0
52659.0,STARLINK-3960,PAYLOAD,2024-07-01 07:51:23,15.08842012,0.0001177,53.2163,41.0337,104.5149,255.5974,0.00031385,4.711e-05,0.0,0 STARLINK-3960,1 52659U 22053D   24183.32735854  .00004711  00000-0  31385-3 0  9990,2 52659  53.2163  41.0337 0001177 104.5149 255.5974 15.08842012118173,6917.874,95.437,540.553,538.925,0.0
52659.0,STARLINK-3960,PAYLOAD,2024-07-01 22:09:51,15.0884601,0.0001002,53.2158,38.3539,92.7385,267.3722,0.00035532,5.373e-05,0.0,0 STARLINK-3960,1 52659U 22053D   24183.92351672  .00005373  00000-0  35532-3 0  9991,2 52659  53.2158  38.3539 0001002  92.7385 267.3722 15.08846010118261,6917.862,95.437,540.42,539.034,0.0
52659.0,STARLINK-3960,PAYLOAD,2024-07-02 07:42:11,15.0883986,0.0001111,53.2163,36.5698,77.2343,282.8774,0.00020055,2.905e-05,0.0,0 STARLINK-3960,1 52659U 22053D   24184.32096112  .00002905  00000-0  20055-3 0  9993,2 52659  53.2163  36.5698 0001111  77.2343 282.8774 15.08839860118338,6917.881,95.438,540.514,538.977,0.0
52659.0,STARLINK-3960,PAYLOAD,2024-07-02 14:03:43,15.08838876,0.0001012,53.2147,35.3779,94.5902,265.5206,4.443e-05,4.19e-06,0.0,0 STARLINK-3960,1 52659U 22053D   24184.58591936  .00000419  00000-0  44430-4 0  9997,2 52659  53.2147  35.3779 0001012  94.5902 265.5206 15.08838876118367,6917.884,95.438,540.449,539.049,0.0
